IRIDIUM 921 [-]         
1 24873U 97034E   24068.46784296  .00025492  00000+0  79954-3 0  9991
2 24873  86.3887 337.7194 0000931 326.6641  33.4551 15.32926292460003
IRIDIUM 26 [-]          
1 24903U 97043A   24068.17262289  .00000556  00000+0  18398-3 0  9995
2 24903  86.3949 306.1738 0002038  92.3667 267.7763 14.36233580390301
IRIDIUM 22 [-]          
1 24907U 97043E   24068.42923064  .00000532  00000+0  17945-3 0  9993
2 24907  86.3959 309.2239 0002073  85.1656 274.9777 14.35129295389942
DUMMY MASS 1 [-]        
1 24925U 97048A   24068.19507439  .00000770  00000+0  84790-4 0  9993
2 24925  86.3400 350.6491 0007218  17.6545 342.4928 14.86083353436140
DUMMY MASS 2 [-]        
1 24926U 97048B   24067.54185475  .00000762  00000+0  84304-4 0  9996
2 24926  86.3401 352.4743 0008514  27.6226 332.5449 14.85841505435832
IRIDIUM 29 [-]          
1 24944U 97051A   24068.18510268  .00000611  00000+0  20540-3 0  9997
2 24944  86.4006 339.2541 0002093  78.6753 281.4678 14.35586691386614
IRIDIUM 33 [-]          
1 24946U 97051C   24067.49052856  .00000419  00000+0  14224-3 0  9994
2 24946  86.3921 338.8047 0008709 147.8506 212.3223 14.34279147385849
IRIDIUM 28 [-]          
1 24948U 97051E   24068.46475073  .00000616  00000+0  20316-3 0  9992
2 24948  86.4008 336.9213 0002208  96.9198 263.2250 14.36535762387039
