<?xml version="1.0" encoding="UTF-8"?>
<ndm xmlns:xsi="http://www.w3.org/2001/XMLSchema-instance" xsi:noNamespaceSchemaLocation="https://sanaregistry.org/r/ndmxml_unqualified/ndmxml-2.0.0-master-2.0.xsd">
<omm id="CCSDS_OMM_VERS" version="2.0">
<header><CREATION_DATE/><ORIGINATOR/></header><body><segment><metadata><OBJECT_NAME>IRIDIUM 921 [-]</OBJECT_NAME><OBJECT_ID>1997-034E</OBJECT_ID><CENTER_NAME>EARTH</CENTER_NAME><REF_FRAME>TEME</REF_FRAME><TIME_SYSTEM>UTC</TIME_SYSTEM><MEAN_ELEMENT_THEORY>SGP4</MEAN_ELEMENT_THEORY></metadata><data><meanElements><EPOCH>2024-03-08T11:13:41.631744</EPOCH><MEAN_MOTION>15.32926292</MEAN_MOTION><ECCENTRICITY>.0000931</ECCENTRICITY><INCLINATION>86.3887</INCLINATION><RA_OF_ASC_NODE>337.7194</RA_OF_ASC_NODE><ARG_OF_PERICENTER>326.6641</ARG_OF_PERICENTER><MEAN_ANOMALY>33.4551</MEAN_ANOMALY></meanElements><tleParameters><EPHEMERIS_TYPE>0</EPHEMERIS_TYPE><CLASSIFICATION_TYPE>U</CLASSIFICATION_TYPE><NORAD_CAT_ID>24873</NORAD_CAT_ID><ELEMENT_SET_NO>999</ELEMENT_SET_NO><REV_AT_EPOCH>46000</REV_AT_EPOCH><BSTAR>.79954E-3</BSTAR><MEAN_MOTION_DOT>.25492E-3</MEAN_MOTION_DOT><MEAN_MOTION_DDOT>0</MEAN_MOTION_DDOT></tleParameters></data></segment></body></omm>
<omm id="CCSDS_OMM_VERS" version="2.0">
<header><CREATION_DATE/><ORIGINATOR/></header><body><segment><metadata><OBJECT_NAME>IRIDIUM 26 [-]</OBJECT_NAME><OBJECT_ID>1997-043A</OBJECT_ID><CENTER_NAME>EARTH</CENTER_NAME><REF_FRAME>TEME</REF_FRAME><TIME_SYSTEM>UTC</TIME_SYSTEM><MEAN_ELEMENT_THEORY>SGP4</MEAN_ELEMENT_THEORY></metadata><data><meanElements><EPOCH>2024-03-08T04:08:34.617696</EPOCH><MEAN_MOTION>14.36233580</MEAN_MOTION><ECCENTRICITY>.0002038</ECCENTRICITY><INCLINATION>86.3949</INCLINATION><RA_OF_ASC_NODE>306.1738</RA_OF_ASC_NODE><ARG_OF_PERICENTER>92.3667</ARG_OF_PERICENTER><MEAN_ANOMALY>267.7763</MEAN_ANOMALY></meanElements><tleParameters><EPHEMERIS_TYPE>0</EPHEMERIS_TYPE><CLASSIFICATION_TYPE>U</CLASSIFICATION_TYPE><NORAD_CAT_ID>24903</NORAD_CAT_ID><ELEMENT_SET_NO>999</ELEMENT_SET_NO><REV_AT_EPOCH>39030</REV_AT_EPOCH><BSTAR>.18398E-3</BSTAR><MEAN_MOTION_DOT>.556E-5</MEAN_MOTION_DOT><MEAN_MOTION_DDOT>0</MEAN_MOTION_DDOT></tleParameters></data></segment></body></omm>
<omm id="CCSDS_OMM_VERS" version="2.0">
<header><CREATION_DATE/><ORIGINATOR/></header><body><segment><metadata><OBJECT_NAME>IRIDIUM 22 [-]</OBJECT_NAME><OBJECT_ID>1997-043E</OBJECT_ID><CENTER_NAME>EARTH</CENTER_NAME><REF_FRAME>TEME</REF_FRAME><TIME_SYSTEM>UTC</TIME_SYSTEM><MEAN_ELEMENT_THEORY>SGP4</MEAN_ELEMENT_THEORY></metadata><data><meanElements><EPOCH>2024-03-08T10:18:05.527296</EPOCH><MEAN_MOTION>14.35129295</MEAN_MOTION><ECCENTRICITY>.0002073</ECCENTRICITY><INCLINATION>86.3959</INCLINATION><RA_OF_ASC_NODE>309.2239</RA_OF_ASC_NODE><ARG_OF_PERICENTER>85.1656</ARG_OF_PERICENTER><MEAN_ANOMALY>274.9777</MEAN_ANOMALY></meanElements><tleParameters><EPHEMERIS_TYPE>0</EPHEMERIS_TYPE><CLASSIFICATION_TYPE>U</CLASSIFICATION_TYPE><NORAD_CAT_ID>24907</NORAD_CAT_ID><ELEMENT_SET_NO>999</ELEMENT_SET_NO><REV_AT_EPOCH>38994</REV_AT_EPOCH><BSTAR>.17945E-3</BSTAR><MEAN_MOTION_DOT>.532E-5</MEAN_MOTION_DOT><MEAN_MOTION_DDOT>0</MEAN_MOTION_DDOT></tleParameters></data></segment></body></omm>
<omm id="CCSDS_OMM_VERS" version="2.0">
<header><CREATION_DATE/><ORIGINATOR/></header><body><segment><metadata><OBJECT_NAME>DUMMY MASS 1 [-]</OBJECT_NAME><OBJECT_ID>1997-048A</OBJECT_ID><CENTER_NAME>EARTH</CENTER_NAME><REF_FRAME>TEME</REF_FRAME><TIME_SYSTEM>UTC</TIME_SYSTEM><MEAN_ELEMENT_THEORY>SGP4</MEAN_ELEMENT_THEORY></metadata><data><meanElements><EPOCH>2024-03-08T04:40:54.427296</EPOCH><MEAN_MOTION>14.86083353</MEAN_MOTION><ECCENTRICITY>.0007218</ECCENTRICITY><INCLINATION>86.3400</INCLINATION><RA_OF_ASC_NODE>350.6491</RA_OF_ASC_NODE><ARG_OF_PERICENTER>17.6545</ARG_OF_PERICENTER><MEAN_ANOMALY>342.4928</MEAN_ANOMALY></meanElements><tleParameters><EPHEMERIS_TYPE>0</EPHEMERIS_TYPE><CLASSIFICATION_TYPE>U</CLASSIFICATION_TYPE><NORAD_CAT_ID>24925</NORAD_CAT_ID><ELEMENT_SET_NO>999</ELEMENT_SET_NO><REV_AT_EPOCH>43614</REV_AT_EPOCH><BSTAR>.8479E-4</BSTAR><MEAN_MOTION_DOT>.77E-5</MEAN_MOTION_DOT><MEAN_MOTION_DDOT>0</MEAN_MOTION_DDOT></tleParameters></data></segment></body></omm>
<omm id="CCSDS_OMM_VERS" version="2.0">
<header><CREATION_DATE/><ORIGINATOR/></header><body><segment><metadata><OBJECT_NAME>DUMMY MASS 2 [-]</OBJECT_NAME><OBJECT_ID>1997-048B</OBJECT_ID><CENTER_NAME>EARTH</CENTER_NAME><REF_FRAME>TEME</REF_FRAME><TIME_SYSTEM>UTC</TIME_SYSTEM><MEAN_ELEMENT_THEORY>SGP4</MEAN_ELEMENT_THEORY></metadata><data><meanElements><EPOCH>2024-03-07T13:00:16.250400</EPOCH><MEAN_MOTION>14.85841505</MEAN_MOTION><ECCENTRICITY>.0008514</ECCENTRICITY><INCLINATION>86.3401</INCLINATION><RA_OF_ASC_NODE>352.4743</RA_OF_ASC_NODE><ARG_OF_PERICENTER>27.6226</ARG_OF_PERICENTER><MEAN_ANOMALY>332.5449</MEAN_ANOMALY></meanElements><tleParameters><EPHEMERIS_TYPE>0</EPHEMERIS_TYPE><CLASSIFICATION_TYPE>U</CLASSIFICATION_TYPE><NORAD_CAT_ID>24926</NORAD_CAT_ID><ELEMENT_SET_NO>999</ELEMENT_SET_NO><REV_AT_EPOCH>43583</REV_AT_EPOCH><BSTAR>.84304E-4</BSTAR><MEAN_MOTION_DOT>.762E-5</MEAN_MOTION_DOT><MEAN_MOTION_DDOT>0</MEAN_MOTION_DDOT></tleParameters></data></segment></body></omm>
<omm id="CCSDS_OMM_VERS" version="2.0">
<header><CREATION_DATE/><ORIGINATOR/></header><body><segment><metadata><OBJECT_NAME>IRIDIUM 29 [-]</OBJECT_NAME><OBJECT_ID>1997-051A</OBJECT_ID><CENTER_NAME>EARTH</CENTER_NAME><REF_FRAME>TEME</REF_FRAME><TIME_SYSTEM>UTC</TIME_SYSTEM><MEAN_ELEMENT_THEORY>SGP4</MEAN_ELEMENT_THEORY></metadata><data><meanElements><EPOCH>2024-03-08T04:26:32.871552</EPOCH><MEAN_MOTION>14.35586691</MEAN_MOTION><ECCENTRICITY>.0002093</ECCENTRICITY><INCLINATION>86.4006</INCLINATION><RA_OF_ASC_NODE>339.2541</RA_OF_ASC_NODE><ARG_OF_PERICENTER>78.6753</ARG_OF_PERICENTER><MEAN_ANOMALY>281.4678</MEAN_ANOMALY></meanElements><tleParameters><EPHEMERIS_TYPE>0</EPHEMERIS_TYPE><CLASSIFICATION_TYPE>U</CLASSIFICATION_TYPE><NORAD_CAT_ID>24944</NORAD_CAT_ID><ELEMENT_SET_NO>999</ELEMENT_SET_NO><REV_AT_EPOCH>38661</REV_AT_EPOCH><BSTAR>.2054E-3</BSTAR><MEAN_MOTION_DOT>.611E-5</MEAN_MOTION_DOT><MEAN_MOTION_DDOT>0</MEAN_MOTION_DDOT></tleParameters></data></segment></body></omm>
<omm id="CCSDS_OMM_VERS" version="2.0">
<header><CREATION_DATE/><ORIGINATOR/></header><body><segment><metadata><OBJECT_NAME>IRIDIUM 33 [-]</OBJECT_NAME><OBJECT_ID>1997-051C</OBJECT_ID><CENTER_NAME>EARTH</CENTER_NAME><REF_FRAME>TEME</REF_FRAME><TIME_SYSTEM>UTC</TIME_SYSTEM><MEAN_ELEMENT_THEORY>SGP4</MEAN_ELEMENT_THEORY></metadata><data><meanElements><EPOCH>2024-03-07T11:46:21.667584</EPOCH><MEAN_MOTION>14.34279147</MEAN_MOTION><ECCENTRICITY>.0008709</ECCENTRICITY><INCLINATION>86.3921</INCLINATION><RA_OF_ASC_NODE>338.8047</RA_OF_ASC_NODE><ARG_OF_PERICENTER>147.8506</ARG_OF_PERICENTER><MEAN_ANOMALY>212.3223</MEAN_ANOMALY></meanElements><tleParameters><EPHEMERIS_TYPE>0</EPHEMERIS_TYPE><CLASSIFICATION_TYPE>U</CLASSIFICATION_TYPE><NORAD_CAT_ID>24946</NORAD_CAT_ID><ELEMENT_SET_NO>999</ELEMENT_SET_NO><REV_AT_EPOCH>38584</REV_AT_EPOCH><BSTAR>.14224E-3</BSTAR><MEAN_MOTION_DOT>.419E-5</MEAN_MOTION_DOT><MEAN_MOTION_DDOT>0</MEAN_MOTION_DDOT></tleParameters></data></segment></body></omm>
<omm id="CCSDS_OMM_VERS" version="2.0">
<header><CREATION_DATE/><ORIGINATOR/></header><body><segment><metadata><OBJECT_NAME>IRIDIUM 28 [-]</OBJECT_NAME><OBJECT_ID>1997-051E</OBJECT_ID><CENTER_NAME>EARTH</CENTER_NAME><REF_FRAME>TEME</REF_FRAME><TIME_SYSTEM>UTC</TIME_SYSTEM><MEAN_ELEMENT_THEORY>SGP4</MEAN_ELEMENT_THEORY></metadata><data><meanElements><EPOCH>2024-03-08T11:09:14.463072</EPOCH><MEAN_MOTION>14.36535762</MEAN_MOTION><ECCENTRICITY>.0002208</ECCENTRICITY><INCLINATION>86.4008</INCLINATION><RA_OF_ASC_NODE>336.9213</RA_OF_ASC_NODE><ARG_OF_PERICENTER>96.9198</ARG_OF_PERICENTER><MEAN_ANOMALY>263.2250</MEAN_ANOMALY></meanElements><tleParameters><EPHEMERIS_TYPE>0</EPHEMERIS_TYPE><CLASSIFICATION_TYPE>U</CLASSIFICATION_TYPE><NORAD_CAT_ID>24948</NORAD_CAT_ID><ELEMENT_SET_NO>999</ELEMENT_SET_NO><REV_AT_EPOCH>38703</REV_AT_EPOCH><BSTAR>.20316E-3</BSTAR><MEAN_MOTION_DOT>.616E-5</MEAN_MOTION_DOT><MEAN_MOTION_DDOT>0</MEAN_MOTION_DDOT></tleParameters></data></segment></body></omm>

</ndm>
